GLOBALSTAR M001         
1 25162U 98008A   24270.62087546 -.00000114  00000+0 -13322-3 0  9995
2 25162  52.0065  20.3461 0002018  72.5126 300.6941 12.38194237211069
GLOBALSTAR M002         
1 25164U 98008C   24271.08735874 -.00000087  00000+0 -20759-3 0  9993
2 25164  52.0002 179.8812 0002033  34.9067 325.1886 11.61503950153566
GLOBALSTAR M003         
1 25165U 98008D   24270.80125497  .00000032  00000+0  12987-2 0  9998
2 25165  51.9927 177.9826 0008345 120.8958 278.5139 12.12039701201281
GLOBALSTAR M014         
1 25306U 98023A   24270.81625912 -.00000051  00000+0  49219-3 0  9991
2 25306  51.9814 109.3224 0000403 150.5850 222.8054 11.65471974160463
GLOBALSTAR M006         
1 25307U 98023B   24270.62673591 -.00000050  00000+0  52784-3 0  9997
2 25307  51.9921 152.4259 0004031   2.0417  10.8573 11.58167037186295
GLOBALSTAR M015         
1 25308U 98023C   24271.19394118 -.00000040  00000+0  75537-3 0  9996
2 25308  51.9801 237.4297 0012743 330.2650  42.6724 11.48851045164221
